Unnamed: 0,NORAD_CAT_ID,OBJECT_NAME,EPOCH,MEAN_MOTION,ECCENTRICITY,INCLINATION,RA_OF_ASC_NODE,ARG_OF_PERICENTER,MEAN_ANOMALY,BSTAR,MEAN_MOTION_DOT,MEAN_MOTION_DDOT,TLE_LINE1,TLE_LINE2,SEMIMAJOR_AXIS,PERIOD,APOGEE,PERIGEE,alltitude
2421230,48481,STARLINK-2706,2022-03-16 13:43:34.637952,15.063773,0.000146,53.0529,249.4093,71.7937,288.3211,-0.00021503,-3.481e-05,0,1 48481U 21040BF  22075.57192868 -.00003481  00000-0 -21503-3 0  9996,2 48481  53.0529 249.4093 0001460  71.7937 288.3211 15.06377300 47173,6925.418,95.594,548.294,546.272,547.8472757072625
2419252,48481,STARLINK-2706,2022-03-16 04:10:19.888320,15.06375332,0.0001518,53.0528,251.1972,68.0818,292.0333,-0.00036692,-5.739e-05,0,1 48481U 21040BF  22075.17384130 -.00005739  00000-0 -36692-3 0  9990,2 48481  53.0528 251.1972 0001518  68.0818 292.0333 15.06375332 48394,6925.424,95.594,548.34,546.238,547.7786710201859
2416653,48481,STARLINK-2706,2022-03-15 18:37:05.157696,15.06387546,0.0001452,53.0529,252.9843,72.2782,287.8366,3.3901e-05,2.23e-06,0,1 48481U 21040BF  22074.77575414  .00000223  00000-0  33901-4 0  9994,2 48481  53.0529 252.9843 0001452  72.2782 287.8366 15.06387546 48337,6925.387,95.593,548.257,546.246,547.8220403378225
2411273,48481,STARLINK-2706,2022-03-14 18:43:58.606752,15.06407713,0.0001621,53.0538,257.4511,68.0684,292.0477,6.6348e-05,7.07e-06,0,1 48481U 21040BF  22073.78053943  .00000707  00000-0  66348-4 0  9990,2 48481  53.0538 257.4511 0001621  68.0684 292.0477 15.06407713 46902,6925.325,95.592,548.313,546.067,547.6504532029512
2409152,48481,STARLINK-2706,2022-03-14 12:21:49.522464,15.06402945,0.0001587,53.0537,258.642,69.8631,290.2528,2.4125e-05,7.8e-07,0,1 48481U 21040BF  22073.51515651  .00000078  00000-0  24125-4 0  9998,2 48481  53.0537 258.6420 0001587  69.8631 290.2528 15.06402945 46869,6925.34,95.592,548.304,546.105,547.7053468672855
2409150,48481,STARLINK-2706,2022-03-14 12:21:49.522464,15.06402945,0.0001587,53.0537,258.642,69.8631,290.2528,2.4125e-05,7.8e-07,0,1 48481U 21040BF  22073.51515651  .00000078  00000-0  24125-4 0  9998,2 48481  53.0537 258.6420 0001587  69.8631 290.2528 15.06402945 48142,6925.34,95.592,548.304,546.105,547.7053468672855
2406396,48481,STARLINK-2706,2022-03-13 22:01:58.819296,15.06396057,0.0001432,53.0535,261.3227,80.7169,279.3982,-8.0288e-05,-1.477e-05,0,1 48481U 21040BF  22072.91804189 -.00001477  00000-0 -80288-4 0  9996,2 48481  53.0535 261.3227 0001432  80.7169 279.3982 15.06396057 46778,6925.361,95.592,548.217,546.234,547.9471538003841
2404750,48481,STARLINK-2706,2022-03-13 18:50:54.276288,15.06396157,0.0001615,53.0536,261.9188,70.5377,289.5787,-0.00012654,-2.166e-05,0,1 48481U 21040BF  22072.78535042 -.00002166  00000-0 -12654-3 0  9997,2 48481  53.0536 261.9188 0001615  70.5377 289.5787 15.06396157 48030,6925.36,95.592,548.344,546.107,547.7299027650839
2402909,48481,STARLINK-2706,2022-03-13 12:28:44.887008,15.06396555,0.0001575,53.054,263.1111,68.2841,291.8316,-0.00014153,-2.389e-05,0,1 48481U 21040BF  22072.51996397 -.00002389  00000-0 -14153-3 0  9995,2 48481  53.0540 263.1111 0001575  68.2841 291.8316 15.06396555 46719,6925.359,95.592,548.315,546.133,547.7025590499399
2401917,48481,STARLINK-2706,2022-03-13 09:17:39.569856,15.0640453,0.0001525,53.0542,263.7073,70.3084,289.8069,-5.1998e-05,-1.056e-05,0,1 48481U 21040BF  22072.38726354 -.00001056  00000-0 -51998-4 0  9993,2 48481  53.0542 263.7073 0001525  70.3084 289.8069 15.06404530 47976,6925.335,95.592,548.256,546.144,547.7234563724205
2398829,48481,STARLINK-2706,2022-03-12 20:33:20.443104,15.064062,0.0001622,53.0538,266.0905,62.146,297.9694,5.995e-05,6.12e-06,0,1 48481U 21040BF  22071.85648661  .00000612  00000-0  59950-4 0  9999,2 48481  53.0538 266.0905 0001622  62.1460 297.9694 15.06406200 46616,6925.33,95.592,548.318,546.071,547.5483580485362
2396170,48481,STARLINK-2706,2022-03-12 12:35:38.590944,15.0640895,0.0001567,53.0541,267.5788,66.518,293.5974,0.00012473,1.577e-05,0,1 48481U 21040BF  22071.52475221  .00001577  00000-0  12473-3 0  9992,2 48481  53.0541 267.5788 0001567  66.5180 293.5974 15.06408950 47843,6925.321,95.592,548.271,546.101,547.6335082487491
2396172,48481,STARLINK-2706,2022-03-12 12:35:38.590944,15.0640895,0.0001567,53.0541,267.5788,66.518,293.5974,0.00012473,1.577e-05,0,1 48481U 21040BF  22071.52475221  .00001577  00000-0  12473-3 0  9992,2 48481  53.0541 267.5788 0001567  66.5180 293.5974 15.06408950 46561,6925.321,95.592,548.271,546.101,547.6335082487491
2392557,48481,STARLINK-2706,2022-03-11 20:40:15.198528,15.06405401,0.0001635,53.0541,270.5572,64.4774,295.6384,0.00017223,2.285e-05,0,1 48481U 21040BF  22070.86128702  .00002285  00000-0  17223-3 0  9992,2 48481  53.0541 270.5572 0001635  64.4774 295.6384 15.06405401 46463,6925.332,95.592,548.329,546.065,547.5858805730223
2388754,48481,STARLINK-2706,2022-03-11 07:55:56.536608,15.06401295,0.0001647,53.054,272.94,64.1895,295.9264,0.0001896,2.544e-05,0,1 48481U 21040BF  22070.33051547  .00002544  00000-0  18960-3 0  9993,2 48481  53.0540 272.9400 0001647  64.1895 295.9264 15.06401295 46380,6925.345,95.592,548.35,546.069,547.59229276288
2388753,48481,STARLINK-2706,2022-03-11 07:55:56.536608,15.06401295,0.0001647,53.054,272.94,64.1895,295.9264,0.0001896,2.544e-05,0,1 48481U 21040BF  22070.33051547  .00002544  00000-0  18960-3 0  9993,2 48481  53.0540 272.9400 0001647  64.1895 295.9264 15.06401295 47662,6925.345,95.592,548.35,546.069,547.59229276288
2386518,48481,STARLINK-2706,2022-03-10 20:47:10.395456,15.06392591,0.0001639,53.0539,275.0251,64.1543,295.9615,0.00018618,2.492e-05,0,1 48481U 21040BF  22069.86609254  .00002492  00000-0  18618-3 0  9995,2 48481  53.0539 275.0251 0001639  64.1543 295.9615 15.06392591 46318,6925.371,95.593,548.371,546.101,547.6196624658711
2385659,48481,STARLINK-2706,2022-03-10 19:11:38.137344,15.06390394,0.0001641,53.0539,275.3229,64.2521,295.8637,0.00016766,2.216e-05,0,1 48481U 21040BF  22069.79974696  .00002216  00000-0  16766-3 0  9998,2 48481  53.0539 275.3229 0001641  64.2521 295.8637 15.06390394 47588,6925.378,95.593,548.379,546.107,547.6255560211176
2382841,48481,STARLINK-2706,2022-03-10 09:38:23.917344,15.06389455,0.0001636,53.0539,277.1101,64.1989,295.9168,0.00011659,1.455e-05,0,1 48481U 21040BF  22069.40166571  .00001455  00000-0  11659-3 0  9991,2 48481  53.0539 277.1101 0001636  64.1989 295.9168 15.06389455 46246,6925.381,95.593,548.379,546.113,547.6349949773094
2380407,48481,STARLINK-2706,2022-03-09 20:54:04.927104,15.0639357,0.0001615,53.054,279.4929,64.0442,296.0713,-4.307e-05,-9.23e-06,0,1 48481U 21040BF  22068.87089036 -.00000923  00000-0 -43070-4 0  9995,2 48481  53.0540 279.4929 0001615  64.0442 296.0713 15.06393570 46163,6925.368,95.593,548.352,546.115,547.6260938631542
2377971,48481,STARLINK-2706,2022-03-09 12:56:23.117280,15.06392624,0.000161,53.054,280.982,64.1904,295.9251,-6.0457e-05,-1.182e-05,0,1 48481U 21040BF  22068.53915645 -.00001182  00000-0 -60457-4 0  9998,2 48481  53.0540 280.9820 0001610  64.1904 295.9251 15.06392624 46118,6925.371,95.593,548.351,546.121,547.6268582960321
2377968,48481,STARLINK-2706,2022-03-09 12:56:23.117280,15.06392624,0.000161,53.054,280.982,64.1904,295.9251,-6.0457e-05,-1.182e-05,0,1 48481U 21040BF  22068.53915645 -.00001182  00000-0 -60457-4 0  9998,2 48481  53.0540 280.9820 0001610  64.1904 295.9251 15.06392624 47399,6925.371,95.593,548.351,546.121,547.6268582960321
2374652,48481,STARLINK-2706,2022-03-08 21:00:59.537376,15.06384629,0.000157,53.0541,283.9606,63.5148,296.6001,-6.3992e-05,-1.234e-05,0,1 48481U 21040BF  22067.87568909 -.00001234  00000-0 -63992-4 0  9996,2 48481  53.0541 283.9606 0001570  63.5148 296.6001 15.06384629 46018,6925.396,95.593,548.348,546.173,547.6551928591457
2372122,48481,STARLINK-2706,2022-03-08 13:03:17.228160,15.06383404,0.0001557,53.0534,285.4498,63.1548,296.96,-9.5831e-05,-1.708e-05,0,1 48481U 21040BF  22067.54394940 -.00001708  00000-0 -95831-4 0  9995,2 48481  53.0534 285.4498 0001557  63.1548 296.9600 15.06383404 45962,6925.399,95.593,548.343,546.186,547.6544832379238
2371434,48481,STARLINK-2706,2022-03-08 11:27:44.867232,15.06382708,0.0001539,53.0535,285.7477,62.8033,297.3113,-7.8852e-05,-1.455e-05,0,1 48481U 21040BF  22067.47760263 -.00001455  00000-0 -78852-4 0  9995,2 48481  53.0535 285.7477 0001539  62.8033 297.3113 15.06382708 47230,6925.402,95.593,548.332,546.201,547.6613118398947
2368434,48481,STARLINK-2706,2022-03-07 21:07:52.359168,15.06409981,0.0001589,53.0532,288.4284,62.0094,298.1055,0.00030802,4.311e-05,0,1 48481U 21040BF  22066.88046712  .00004311  00000-0  30802-3 0  9999,2 48481  53.0532 288.4284 0001589  62.0094 298.1055 15.06409981 45861,6925.318,95.592,548.283,546.083,547.5444778555169
2364782,48481,STARLINK-2706,2022-03-07 09:59:06.127296,15.06403148,0.000156,53.0536,290.5134,61.4707,298.6439,0.00022182,3.024e-05,0,1 48481U 21040BF  22066.41604314  .00003024  00000-0  22182-3 0  9998,2 48481  53.0536 290.5134 0001560  61.4707 298.6439 15.06403148 45798,6925.339,95.592,548.284,546.124,547.5642028843733
2364781,48481,STARLINK-2706,2022-03-07 09:59:06.127296,15.06403148,0.000156,53.0536,290.5134,61.4707,298.6439,0.00022182,3.024e-05,0,1 48481U 21040BF  22066.41604314  .00003024  00000-0  22182-3 0  9998,2 48481  53.0536 290.5134 0001560  61.4707 298.6439 15.06403148 47071,6925.339,95.592,548.284,546.124,547.5642028843733
2360526,48481,STARLINK-2706,2022-03-06 14:52:38.691840,15.06391514,0.0001643,53.0536,294.0875,61.7736,298.3419,0.00011272,1.397e-05,0,1 48481U 21040BF  22065.61988506  .00001397  00000-0  11272-3 0  9996,2 48481  53.0536 294.0875 0001643  61.7736 298.3419 15.06391514 45671,6925.375,95.593,548.377,546.102,547.5771454691254
2358161,48481,STARLINK-2706,2022-03-06 08:30:28.424160,15.06394011,0.0001656,53.0537,295.2788,61.5905,298.525,4.4732e-05,3.85e-06,0,1 48481U 21040BF  22065.35449565  .00000385  00000-0  44732-4 0  9998,2 48481  53.0537 295.2788 0001656  61.5905 298.5250 15.06394011 46916,6925.367,95.593,548.379,546.085,547.5647410833236
